<kml:kml xmlns:gx="http://www.google.com/kml/ext/2.2" xmlns:kml="http://www.opengis.net/kml/2.2">
<kml:Document id="1BhI-cysDsjzSP5n32bw4OxQ8Uq9JppV7">
	<kml:name>PROPIEDADESVENTA</kml:name>
	<gx:CascadingStyle kml:id="__managed_style_36206C07643EF20E6B84_highlight">
		<kml:styleUrl>https://earth.google.com/balloon_components/base/1.1.0.0/card_template.kml#main</kml:styleUrl>
		<kml:Style>
			<kml:IconStyle>
				<kml:scale>1.2</kml:scale>
				<kml:Icon>
					<kml:href>https://earth.google.com/earth/document/icon?color=ab47bc&amp;id=2000&amp;scale=4</kml:href>
				</kml:Icon>
				<kml:hotSpot x="64" y="128" xunits="pixels" yunits="insetPixels" />
			</kml:IconStyle>
			<kml:LabelStyle>
			</kml:LabelStyle>
			<kml:LineStyle>
				<kml:color>ff2dc0fb</kml:color>
				<kml:width>3</kml:width>
			</kml:LineStyle>
			<kml:PolyStyle>
				<kml:color>40ffffff</kml:color>
			</kml:PolyStyle>
			<kml:BalloonStyle>
			</kml:BalloonStyle>
		</kml:Style>
	</gx:CascadingStyle>
	<kml:StyleMap id="__managed_style_36206C07643EF20E6B84">
		<kml:Pair>
			<kml:key>normal</kml:key>
			<kml:styleUrl>#__managed_style_36206C07643EF20E6B84_normal</kml:styleUrl>
		</kml:Pair>
		<kml:Pair>
			<kml:key>highlight</kml:key>
			<kml:styleUrl>#__managed_style_36206C07643EF20E6B84_highlight</kml:styleUrl>
		</kml:Pair>
	</kml:StyleMap>
		<gx:CascadingStyle kml:id="__managed_style_093D50190F3EF20E6B84_normal">
		<kml:styleUrl>https://earth.google.com/balloon_components/base/1.1.0.0/card_template.kml#main</kml:styleUrl>
		<kml:Style>
			<kml:IconStyle>
				<kml:Icon>
					<kml:href>https://earth.google.com/earth/document/icon?color=ab47bc&amp;id=2000&amp;scale=4</kml:href>
				</kml:Icon>
				<kml:hotSpot x="64" y="128" xunits="pixels" yunits="insetPixels" />
			</kml:IconStyle>
			<kml:LabelStyle>
			</kml:LabelStyle>
			<kml:LineStyle>
				<kml:color>ff2dc0fb</kml:color>
				<kml:width>2</kml:width>
			</kml:LineStyle>
			<kml:PolyStyle>
				<kml:color>40ffffff</kml:color>
			</kml:PolyStyle>
			<kml:BalloonStyle>
			</kml:BalloonStyle>
		</kml:Style>
	</gx:CascadingStyle>
	<gx:CascadingStyle kml:id="__managed_style_0E8CE298DB3EF20E6B83_highlight">
		<kml:styleUrl>https://earth.google.com/balloon_components/base/1.1.0.0/card_template.kml#main</kml:styleUrl>
		<kml:Style>
			<kml:IconStyle>
				<kml:scale>1.2</kml:scale>
				<kml:Icon>
					<kml:href>https://earth.google.com/earth/document/icon?color=ef5350&amp;id=2000&amp;scale=4</kml:href>
				</kml:Icon>
				<kml:hotSpot x="64" y="128" xunits="pixels" yunits="insetPixels" />
			</kml:IconStyle>
			<kml:LabelStyle>
			</kml:LabelStyle>
			<kml:LineStyle>
				<kml:color>ff2dc0fb</kml:color>
				<kml:width>3</kml:width>
			</kml:LineStyle>
			<kml:PolyStyle>
				<kml:color>40ffffff</kml:color>
			</kml:PolyStyle>
			<kml:BalloonStyle>
			</kml:BalloonStyle>
		</kml:Style>
	</gx:CascadingStyle>
	<kml:StyleMap id="__managed_style_0E8CE298DB3EF20E6B83">
		<kml:Pair>
			<kml:key>normal</kml:key>
			<kml:styleUrl>#__managed_style_0E8CE298DB3EF20E6B83_normal</kml:styleUrl>
		</kml:Pair>
		<kml:Pair>
			<kml:key>highlight</kml:key>
			<kml:styleUrl>#__managed_style_0E8CE298DB3EF20E6B83_highlight</kml:styleUrl>
		</kml:Pair>
	</kml:StyleMap>
		<gx:CascadingStyle kml:id="__managed_style_0E8CE298DB3EF20E6B83_normal">
		<kml:styleUrl>https://earth.google.com/balloon_components/base/1.1.0.0/card_template.kml#main</kml:styleUrl>
		<kml:Style>
			<kml:IconStyle>
				<kml:Icon>
					<kml:href>https://earth.google.com/earth/document/icon?color=ef5350&amp;id=2000&amp;scale=4</kml:href>
				</kml:Icon>
				<kml:hotSpot x="64" y="128" xunits="pixels" yunits="insetPixels" />
			</kml:IconStyle>
			<kml:LabelStyle>
			</kml:LabelStyle>
			<kml:LineStyle>
				<kml:color>ff2dc0fb</kml:color>
				<kml:width>2</kml:width>
			</kml:LineStyle>
			<kml:PolyStyle>
				<kml:color>40ffffff</kml:color>
			</kml:PolyStyle>
			<kml:BalloonStyle>
			</kml:BalloonStyle>
		</kml:Style>
	</gx:CascadingStyle>
					<gx:CascadingStyle kml:id="__managed_style_02F647BF173EF20E6B81_highlight">
		<kml:styleUrl>https://earth.google.com/balloon_components/base/1.1.0.0/card_template.kml#main</kml:styleUrl>
		<kml:Style>
			<kml:IconStyle>
				<kml:scale>1.2</kml:scale>
				<kml:Icon>
					<kml:href>https://earth.google.com/earth/document/icon?color=ab47bc&amp;id=2000&amp;scale=4</kml:href>
				</kml:Icon>
				<kml:hotSpot x="64" y="128" xunits="pixels" yunits="insetPixels" />
			</kml:IconStyle>
			<kml:LabelStyle>
			</kml:LabelStyle>
			<kml:LineStyle>
				<kml:color>ff2dc0fb</kml:color>
				<kml:width>3</kml:width>
			</kml:LineStyle>
			<kml:PolyStyle>
				<kml:color>40ffffff</kml:color>
			</kml:PolyStyle>
			<kml:BalloonStyle>
			</kml:BalloonStyle>
		</kml:Style>
	</gx:CascadingStyle>
		<gx:CascadingStyle kml:id="__managed_style_36206C07643EF20E6B84_normal">
		<kml:styleUrl>https://earth.google.com/balloon_components/base/1.1.0.0/card_template.kml#main</kml:styleUrl>
		<kml:Style>
			<kml:IconStyle>
				<kml:Icon>
					<kml:href>https://earth.google.com/earth/document/icon?color=ab47bc&amp;id=2000&amp;scale=4</kml:href>
				</kml:Icon>
				<kml:hotSpot x="64" y="128" xunits="pixels" yunits="insetPixels" />
			</kml:IconStyle>
			<kml:LabelStyle>
			</kml:LabelStyle>
			<kml:LineStyle>
				<kml:color>ff2dc0fb</kml:color>
				<kml:width>2</kml:width>
			</kml:LineStyle>
			<kml:PolyStyle>
				<kml:color>40ffffff</kml:color>
			</kml:PolyStyle>
			<kml:BalloonStyle>
			</kml:BalloonStyle>
		</kml:Style>
	</gx:CascadingStyle>
	<gx:CascadingStyle kml:id="__managed_style_093D50190F3EF20E6B84_highlight">
		<kml:styleUrl>https://earth.google.com/balloon_components/base/1.1.0.0/card_template.kml#main</kml:styleUrl>
		<kml:Style>
			<kml:IconStyle>
				<kml:scale>1.2</kml:scale>
				<kml:Icon>
					<kml:href>https://earth.google.com/earth/document/icon?color=ab47bc&amp;id=2000&amp;scale=4</kml:href>
				</kml:Icon>
				<kml:hotSpot x="64" y="128" xunits="pixels" yunits="insetPixels" />
			</kml:IconStyle>
			<kml:LabelStyle>
			</kml:LabelStyle>
			<kml:LineStyle>
				<kml:color>ff2dc0fb</kml:color>
				<kml:width>3</kml:width>
			</kml:LineStyle>
			<kml:PolyStyle>
				<kml:color>40ffffff</kml:color>
			</kml:PolyStyle>
			<kml:BalloonStyle>
			</kml:BalloonStyle>
		</kml:Style>
	</gx:CascadingStyle>
		<gx:CascadingStyle kml:id="__managed_style_02F647BF173EF20E6B81_normal">
		<kml:styleUrl>https://earth.google.com/balloon_components/base/1.1.0.0/card_template.kml#main</kml:styleUrl>
		<kml:Style>
			<kml:IconStyle>
				<kml:Icon>
					<kml:href>https://earth.google.com/earth/document/icon?color=ab47bc&amp;id=2000&amp;scale=4</kml:href>
				</kml:Icon>
				<kml:hotSpot x="64" y="128" xunits="pixels" yunits="insetPixels" />
			</kml:IconStyle>
			<kml:LabelStyle>
			</kml:LabelStyle>
			<kml:LineStyle>
				<kml:color>ff2dc0fb</kml:color>
				<kml:width>2</kml:width>
			</kml:LineStyle>
			<kml:PolyStyle>
				<kml:color>40ffffff</kml:color>
			</kml:PolyStyle>
			<kml:BalloonStyle>
			</kml:BalloonStyle>
		</kml:Style>
	</gx:CascadingStyle>
		<kml:StyleMap id="__managed_style_093D50190F3EF20E6B84">
		<kml:Pair>
			<kml:key>normal</kml:key>
			<kml:styleUrl>#__managed_style_093D50190F3EF20E6B84_normal</kml:styleUrl>
		</kml:Pair>
		<kml:Pair>
			<kml:key>highlight</kml:key>
			<kml:styleUrl>#__managed_style_093D50190F3EF20E6B84_highlight</kml:styleUrl>
		</kml:Pair>
	</kml:StyleMap>
	<kml:StyleMap id="__managed_style_02F647BF173EF20E6B81">
		<kml:Pair>
			<kml:key>normal</kml:key>
			<kml:styleUrl>#__managed_style_02F647BF173EF20E6B81_normal</kml:styleUrl>
		</kml:Pair>
		<kml:Pair>
			<kml:key>highlight</kml:key>
			<kml:styleUrl>#__managed_style_02F647BF173EF20E6B81_highlight</kml:styleUrl>
		</kml:Pair>
	</kml:StyleMap>
	<kml:Placemark id="01C2FD09D43606DC2FF7">
		<kml:name>HAS ORILLAS DE CALEUFU</kml:name>
		<kml:description>&lt;h3&gt;&lt;b&gt;Orillas de Caleufú&lt;/b&gt;&lt;br&gt;&lt;/h3&gt;&lt;p&gt;&lt;br&gt;&lt;/p&gt;&lt;div&gt;&amp;nbsp;&lt;b&gt;Valor:&lt;/b&gt; U$D 420.000&lt;br&gt;&lt;/div&gt;&lt;div&gt;&amp;nbsp; &lt;b&gt;Ubicación:&lt;/b&gt; Orillas del río Caleufú, en un entorno natural privilegiado, ideal para turismo y recreación.&lt;br&gt;&lt;/div&gt;&lt;div&gt;&lt;b&gt;Superficie:&lt;/b&gt; 13.000 m²&lt;br&gt;&lt;/div&gt;&lt;div&gt;&lt;b&gt;Frente sobre el río:&lt;/b&gt; 80 metros de costa sobre el río Caleufú, ofreciendo vistas panorámicas y acceso directo al agua.&lt;br&gt;&lt;/div&gt;&lt;p&gt;&lt;br&gt;&lt;/p&gt;&lt;h3&gt;&lt;b&gt;Accesibilidad y Ubicación&lt;/b&gt;&lt;br&gt;&lt;/h3&gt;&lt;p&gt;&lt;br&gt;&lt;/p&gt;&lt;div&gt;&lt;b&gt;Acceso:&lt;/b&gt; Se llega a través de rutas consolidadas, con caminos que permiten un fácil ingreso en cualquier época del año.&lt;br&gt;&lt;/div&gt;&lt;div&gt;&lt;b&gt;Rutas cercanas:&lt;/b&gt; Conectado con las principales vías de acceso a San Martín de los Andes, Villa La Angostura y Bariloche, lo que facilita el turismo y la logística.&lt;br&gt;&lt;/div&gt;&lt;div&gt;&lt;b&gt;Entorno:&lt;/b&gt; Un área rodeada de naturaleza virgen, con bosques, montañas y el río Caleufú, ideal para actividades al aire libre como pesca, kayak, trekking y cabalgatas.&lt;br&gt;&lt;/div&gt;&lt;p&gt;&lt;br&gt;&lt;/p&gt;&lt;h3&gt;&lt;b&gt;Servicios&lt;/b&gt;&lt;br&gt;&lt;/h3&gt;&lt;div&gt;&lt;b&gt;Energía:&lt;/b&gt; Alimentación por generador.&lt;br&gt;&lt;/div&gt;&lt;div&gt;&lt;b&gt;Agua:&lt;/b&gt; Suministro por caño troncal con toma de río, garantizando abastecimiento sostenible.&lt;br&gt;&lt;/div&gt;&lt;h3&gt;&lt;b&gt;Potencial de Desarrollo&lt;/b&gt;&lt;br&gt;&lt;/h3&gt;&lt;p&gt;&lt;br&gt;&lt;/p&gt;&lt;div&gt;&lt;b&gt;Lote apto para turismo y desarrollo comercial&lt;/b&gt;&lt;br&gt;&lt;/div&gt;&lt;div&gt;&lt;b&gt;Complejo de cabañas:&lt;/b&gt; Ubicación ideal para un emprendimiento turístico de cabañas en la naturaleza.&lt;br&gt;&lt;/div&gt;&lt;div&gt;&lt;b&gt;Emprendimiento turístico:&lt;/b&gt; Puede desarrollarse un eco-lodge, glamping o un centro recreativo para turismo aventura.&lt;br&gt;&lt;/div&gt;&lt;div&gt;&lt;b&gt;Desarrollo sustentable:&lt;/b&gt; Perfecto para un proyecto de turismo ecológico con enfoque en el cuidado del medioambiente.&lt;br&gt;&lt;/div&gt;&lt;p&gt;&lt;br&gt;&lt;/p&gt;&lt;div&gt;&lt;br&gt;&lt;/div&gt;</kml:description>
		<kml:LookAt>
			<kml:longitude>-71.17570600026737</kml:longitude>
			<kml:latitude>-40.49975399939966</kml:latitude>
			<kml:altitude>825.1272102879913</kml:altitude>
			<kml:heading>0</kml:heading>
			<kml:tilt>0</kml:tilt>
			<gx:fovy>35</gx:fovy>
			<kml:range>624.1781743168394</kml:range>
			<kml:altitudeMode>absolute</kml:altitudeMode>
		</kml:LookAt>
		<kml:styleUrl>#__managed_style_02F647BF173EF20E6B81</kml:styleUrl>
		<kml:Point>
			<kml:coordinates>-71.17500304305337,-40.49949316293723,825.4486409295596</kml:coordinates>
		</kml:Point>
	</kml:Placemark>
<kml:Placemark id="044DBB7B3A3608E3A6CF">
		<kml:name>LOTES KALEUCHE ALTO</kml:name>
		<kml:description>&lt;p&gt;&lt;br&gt;&lt;/p&gt;&lt;div&gt;&lt;b&gt;Inversión Inteligente a Futuro – Lotes con Vista al Lago Lolog&lt;/b&gt;&lt;br&gt;&lt;/div&gt;&lt;div&gt;&lt;b&gt;Manzana 139 – UF 34 a 38&lt;/b&gt;&lt;br&gt;&lt;/div&gt;&lt;div&gt;&lt;b&gt;Superficie por lote: 700 m²&lt;/b&gt;&lt;br&gt;&lt;/div&gt;&lt;div&gt;&lt;b&gt;Valor desde USD 11.000 / 15.000 cash&lt;/b&gt;&lt;br&gt;&lt;/div&gt;&lt;div&gt;&lt;b&gt;Opción de financiación y propuestas por el conjunto de 5 lotes&lt;/b&gt;&lt;br&gt;&lt;/div&gt;&lt;p&gt;&lt;br&gt;&lt;/p&gt;&lt;p&gt;Te presentamos una &lt;b&gt;oportunidad única para capitalizarte en tierra&lt;/b&gt;, con cinco lotes escriturados, contiguos y con &lt;b&gt;impactantes vistas panorámicas al Lago Lolog&lt;/b&gt;, en un entorno natural privilegiado.&lt;br&gt;&lt;/p&gt;&lt;p&gt;Ubicados sobre la &lt;b&gt;Ruta Nacional 62&lt;/b&gt;, a tan solo &lt;b&gt;20 minutos del centro de San Martín de los Andes&lt;/b&gt;, en una zona con marcado crecimiento residencial y turístico.&lt;br&gt;&lt;/p&gt;&lt;p&gt;Los terrenos &lt;b&gt;no cuentan con servicios&lt;/b&gt;, lo que permite acceder hoy a precios muy accesibles en un área con gran proyección de desarrollo. Son ideales para quien piensa a mediano o largo plazo y busca asegurar metros cuadrados en una de las zonas más bellas y tranquilas de la Patagonia.&lt;br&gt;&lt;/p&gt;&lt;p&gt;&lt;b&gt;Características destacadas:&lt;/b&gt;&lt;br&gt;&lt;/p&gt;&lt;ul&gt;&lt;li&gt;&lt;p&gt;Escritura inmediata en cada lote&lt;br&gt;&lt;/p&gt;&lt;/li&gt;&lt;li&gt;&lt;p&gt;Potencial de revalorización&lt;br&gt;&lt;/p&gt;&lt;/li&gt;&lt;li&gt;&lt;p&gt;Excelente acceso y conectividad&lt;br&gt;&lt;/p&gt;&lt;/li&gt;&lt;li&gt;&lt;p&gt;Inversión con bajo riesgo y alto margen de crecimiento&lt;br&gt;&lt;/p&gt;&lt;/li&gt;&lt;li&gt;&lt;p&gt;Posibilidad de adquirir hasta 3.500 m² en una sola operación&lt;br&gt;&lt;/p&gt;&lt;/li&gt;&lt;/ul&gt;&lt;p&gt;Una &lt;b&gt;decisión estratégica&lt;/b&gt; para quienes entienden el valor de anticiparse al mercado.&lt;br&gt;&lt;/p&gt;&lt;p&gt;&lt;br&gt;&lt;/p&gt;&lt;p&gt;&lt;br&gt;&lt;/p&gt;&lt;div&gt;&lt;br&gt;&lt;/div&gt;&lt;p&gt;&lt;br&gt;&lt;/p&gt;&lt;div&gt;&lt;br&gt;&lt;/div&gt;</kml:description>
		<kml:LookAt>
			<kml:longitude>-71.31280472007059</kml:longitude>
			<kml:latitude>-40.09674262116812</kml:latitude>
			<kml:altitude>1041.68904285186</kml:altitude>
			<kml:heading>0</kml:heading>
			<kml:tilt>0</kml:tilt>
			<gx:fovy>35</gx:fovy>
			<kml:range>3450.99249961786</kml:range>
			<kml:altitudeMode>absolute</kml:altitudeMode>
		</kml:LookAt>
		<kml:styleUrl>#__managed_style_02F647BF173EF20E6B81</kml:styleUrl>
		<kml:Point>
			<kml:coordinates>-71.32658910718146,-40.08920943792356,1128.643448638823</kml:coordinates>
		</kml:Point>
	</kml:Placemark>
<kml:Placemark id="0C6D5B405D3610FB884B">
		<kml:name>LOTE CJN BELLO</kml:name>
		<kml:description>&lt;p class="MsoNormal"&gt;&lt;br&gt;&lt;/p&gt;&lt;p&gt;&lt;br&gt;&lt;/p&gt;&lt;div&gt;&lt;b&gt;Terreno en Venta – Callejón de Bello, San Martín de los Andes&lt;/b&gt;&lt;br&gt;&lt;/div&gt;&lt;div&gt;&lt;b&gt;Superficie: 800 m² | UF 8&lt;/b&gt;&lt;br&gt;&lt;/div&gt;&lt;div&gt;&lt;b&gt;Valor: USD 120.000&lt;/b&gt;&lt;br&gt;&lt;/div&gt;&lt;p&gt;&lt;br&gt;&lt;/p&gt;&lt;p&gt;Ubicado en una de las zonas residenciales más buscadas de San Martín de los Andes, este lote ofrece una excelente oportunidad para construir tu vivienda familiar en un entorno tranquilo, con acceso rápido al casco urbano.&lt;br&gt;&lt;/p&gt;&lt;p&gt;&lt;b&gt;Características destacadas:&lt;/b&gt;&lt;br&gt;&lt;/p&gt;&lt;ul&gt;&lt;li&gt;&lt;p&gt;Terreno plano y soleado&lt;br&gt;&lt;/p&gt;&lt;/li&gt;&lt;li&gt;&lt;p&gt;Acceso asfaltado&lt;br&gt;&lt;/p&gt;&lt;/li&gt;&lt;li&gt;&lt;p&gt;Todos los servicios disponibles: agua corriente, electricidad, gas natural y fibra óptica&lt;br&gt;&lt;/p&gt;&lt;/li&gt;&lt;li&gt;&lt;p&gt;&lt;b&gt;FOS: 76,6 m²&lt;/b&gt;&lt;br&gt;&lt;/p&gt;&lt;/li&gt;&lt;/ul&gt;&lt;p&gt;La Unidad Funcional 8 se encuentra dentro de un entorno consolidado y de baja densidad, ideal para quienes buscan calidad de vida y conexión con la naturaleza sin resignar comodidad.&lt;br&gt;&lt;/p&gt;&lt;p&gt;&lt;br&gt;&lt;/p&gt;&lt;div&gt;&lt;br&gt;&lt;/div&gt;</kml:description>
		<kml:LookAt>
			<kml:longitude>-71.30008330001587</kml:longitude>
			<kml:latitude>-40.13505560009459</kml:latitude>
			<kml:altitude>725.627515229826</kml:altitude>
			<kml:heading>0</kml:heading>
			<kml:tilt>0</kml:tilt>
			<gx:fovy>35</gx:fovy>
			<kml:range>627.8011112279638</kml:range>
			<kml:altitudeMode>absolute</kml:altitudeMode>
		</kml:LookAt>
		<kml:styleUrl>#__managed_style_02F647BF173EF20E6B81</kml:styleUrl>
		<kml:Point>
			<kml:coordinates>-71.30014676797302,-40.13506679782964,725.4636189851171</kml:coordinates>
		</kml:Point>
	</kml:Placemark>
<kml:Placemark id="05676F7F583612FE86BD">
		<kml:name>HUILQUIL CASONA DE MONTAÑA</kml:name>
		<kml:description>&lt;div&gt;CASA TURISTICA PARA 10712 PAX&lt;br&gt;&lt;/div&gt;&lt;div&gt;Valor temporada 2025&lt;br&gt;&lt;/div&gt;&lt;div&gt;U$d 570 baja&amp;nbsp;&lt;br&gt;&lt;/div&gt;&lt;div&gt;600 media&lt;br&gt;&lt;/div&gt;&lt;div&gt;650 alta&lt;br&gt;&lt;/div&gt;&lt;div&gt;&lt;br&gt;&lt;/div&gt;&lt;div&gt;Abre el 4 de ABRIL//&lt;br&gt;&lt;/div&gt;</kml:description>
		<kml:LookAt>
			<kml:longitude>-71.28268010174658</kml:longitude>
			<kml:latitude>-40.1201497067261</kml:latitude>
			<kml:altitude>749.1906500417286</kml:altitude>
			<kml:heading>0</kml:heading>
			<kml:tilt>0</kml:tilt>
			<gx:fovy>35</gx:fovy>
			<kml:range>743.5448506483955</kml:range>
			<kml:altitudeMode>absolute</kml:altitudeMode>
		</kml:LookAt>
		<kml:styleUrl>#__managed_style_0E8CE298DB3EF20E6B83</kml:styleUrl>
		<kml:Point>
			<kml:coordinates>-71.28179831304593,-40.1193154640638,765.5140833686887</kml:coordinates>
		</kml:Point>
	</kml:Placemark>
<kml:Placemark id="099130585137BE3FB633">
		<kml:name>TERRENO ALIHUEN ALTO</kml:name>
		<kml:description>&lt;div&gt;1.700 m2&lt;br&gt;&lt;/div&gt;&lt;div&gt;todos los servicios&lt;br&gt;&lt;/div&gt;&lt;div&gt;Valo&lt;b&gt;&lt;/b&gt;r&amp;nbsp; usd 45 mil&lt;br&gt;&lt;/div&gt;&lt;div&gt;Pendiente mayor a 45 °&lt;br&gt;&lt;/div&gt;&lt;p&gt;&lt;b&gt;Alihuén Alto – Lote de 1.700 m² a 250 metros de la Ruta al Lago Lolog&lt;/b&gt;&lt;br&gt;&lt;/p&gt;&lt;p&gt;Ubicación estratégica, entorno natural impactante y una pendiente que es, lejos de un obstáculo, una verdadera oportunidad para quienes piensan en grande.&lt;br&gt;&lt;/p&gt;&lt;p&gt;&lt;br&gt;&lt;/p&gt;&lt;div&gt;Este lote de &lt;b&gt;1.700 m²&lt;/b&gt; se encuentra a solo &lt;b&gt;250 metros de la Ruta Nacional 62&lt;/b&gt;, camino al Lago Lolog, en la reconocida zona de &lt;b&gt;Alihuén Alto&lt;/b&gt;.&lt;br&gt;&lt;/div&gt;&lt;div&gt;Cuenta con &lt;b&gt;todos los servicios disponibles&lt;/b&gt;: luz, agua y gas por red.&lt;br&gt;&lt;/div&gt;&lt;p&gt;&lt;br&gt;&lt;/p&gt;&lt;p&gt;📌 &lt;b&gt;Características principales:&lt;/b&gt;&lt;br&gt;&lt;/p&gt;&lt;ul&gt;&lt;li&gt;&lt;p&gt;Pendiente pronunciada (mayor a 45°), ideal para una &lt;b&gt;implantación arquitectónica escalonada&lt;/b&gt;&lt;br&gt;&lt;/p&gt;&lt;/li&gt;&lt;li&gt;&lt;p&gt;Perfecto para &lt;b&gt;emprendimientos turísticos&lt;/b&gt; que busquen vistas, privacidad y una estética integrada al entorno&lt;br&gt;&lt;/p&gt;&lt;/li&gt;&lt;li&gt;&lt;p&gt;Posibilidad de desarrollar &lt;b&gt;cabañas, tiny houses, o propuestas sustentables&lt;/b&gt;, aprovechando cada metro del relieve natural&lt;br&gt;&lt;/p&gt;&lt;/li&gt;&lt;/ul&gt;&lt;p&gt;💡 &lt;b&gt;Inversión inteligente&lt;/b&gt;: un lote a un valor accesible, en una zona consolidada, con alta demanda turística y a minutos del centro de San Martín de los Andes.&lt;br&gt;&lt;/p&gt;&lt;p&gt;&lt;b&gt;Valor: USD 45.000&lt;/b&gt;&lt;br&gt;&lt;/p&gt;&lt;p&gt;Consultá para ideas de implantación, referencias de obras en terrenos similares y acompañamiento en todo el proceso desde el proyecto hasta la construcción.&lt;br&gt;&lt;/p&gt;&lt;p&gt;&lt;br&gt;&lt;/p&gt;&lt;div&gt;&lt;b&gt;Denise Catalán Bienes Raíces&lt;/b&gt;&lt;br&gt;&lt;/div&gt;&lt;div&gt;Visión | Territorio | Proyectos con propósito&lt;br&gt;&lt;/div&gt;&lt;p&gt;&lt;br&gt;&lt;/p&gt;&lt;div&gt;&lt;br&gt;&lt;/div&gt;</kml:description>
		<kml:styleUrl>#__managed_style_093D50190F3EF20E6B84</kml:styleUrl>
		<kml:Point>
			<kml:extrude>1</kml:extrude>
			<kml:coordinates>-71.318995,-40.127457,0</kml:coordinates>
		</kml:Point>
	</kml:Placemark>
<kml:Placemark id="0BE59C84B238918C2DA6">
		<kml:name>LOTE G. MASANA</kml:name>
		<kml:description>&lt;div&gt;1.135,69 M2&amp;nbsp;&lt;br&gt;&lt;/div&gt;&lt;div&gt;LUZ Y GAS DE RED&lt;br&gt;&lt;/div&gt;&lt;div&gt;valor usd 45 mil&amp;nbsp;&lt;br&gt;&lt;/div&gt;&lt;div&gt;&amp;nbsp;&lt;b&gt;Oportunidad en Kaleuche – Lote de 1.135 m² con vistas a Chapelco y posibilidad de desarrollo&lt;/b&gt;&lt;br&gt;&lt;/div&gt;&lt;p&gt;Ubicado en el &lt;b&gt;fondo de cul de sac sobre calle Gerardo Masari&lt;/b&gt;, a metros del &lt;b&gt;camino Ruta Nacional 62 hacia Lago Lolog&lt;/b&gt;, este lote ofrece &lt;b&gt;privacidad, entorno natural y una vista abierta al cordón montañoso Chapelco&lt;/b&gt;, en una zona de creciente desarrollo residencial y turístico.&lt;br&gt;&lt;/p&gt;&lt;p&gt;&lt;br&gt;&lt;/p&gt;&lt;div&gt;📍 &lt;b&gt;Lote de 1.135,69 m²&lt;/b&gt;&lt;br&gt;&lt;/div&gt;&lt;div&gt;✔ Servicios de &lt;b&gt;luz y gas por red&lt;/b&gt;&lt;br&gt;&lt;/div&gt;&lt;div&gt;✔ &lt;b&gt;Pendiente irregular aprovechable&lt;/b&gt;, ideal para una implantación escalonada que destaque las vistas&lt;br&gt;&lt;/div&gt;&lt;div&gt;✔ Calle tranquila, baja circulación, dentro del barrio &lt;b&gt;Kaleuche&lt;/b&gt; con &lt;b&gt;acceso fácil y rápido al centro&lt;/b&gt;&lt;br&gt;&lt;/div&gt;&lt;p&gt;&lt;br&gt;&lt;/p&gt;&lt;p&gt;&lt;br&gt;&lt;/p&gt;&lt;div&gt;💡 &lt;b&gt;Ideal para construir y luego vender&lt;/b&gt;&lt;br&gt;&lt;/div&gt;&lt;div&gt;Una oportunidad pensada para desarrolladores o inversores que buscan transformar tierra en valor. También perfecto para quien proyecta una primera vivienda o cabaña con retorno futuro.&lt;br&gt;&lt;/div&gt;&lt;p&gt;&lt;br&gt;&lt;/p&gt;&lt;p&gt;&lt;br&gt;&lt;/p&gt;&lt;div&gt;💰 &lt;b&gt;Valor: USD 45.000&lt;/b&gt;&lt;br&gt;&lt;/div&gt;&lt;div&gt;✔ Se acepta &lt;b&gt;entrega inicial&lt;/b&gt;&lt;br&gt;&lt;/div&gt;&lt;div&gt;✔ Posibilidad de &lt;b&gt;financiación directa&lt;/b&gt;&lt;br&gt;&lt;/div&gt;&lt;p&gt;&lt;br&gt;&lt;/p&gt;&lt;p&gt;Este lote es para vos si buscás:&lt;br&gt;&lt;/p&gt;&lt;ul&gt;&lt;li&gt;&lt;p&gt;Un terreno con vistas despejadas y buena orientación&lt;br&gt;&lt;/p&gt;&lt;/li&gt;&lt;li&gt;&lt;p&gt;Ubicación conectada pero en contacto con la naturaleza&lt;br&gt;&lt;/p&gt;&lt;/li&gt;&lt;li&gt;&lt;p&gt;La posibilidad de construir en etapas y capitalizar la inversión&lt;br&gt;&lt;/p&gt;&lt;/li&gt;&lt;li&gt;&lt;p&gt;Un desarrollo propio, en escala accesible&lt;br&gt;&lt;/p&gt;&lt;/li&gt;&lt;/ul&gt;&lt;div&gt;&lt;br&gt;&lt;/div&gt;</kml:description>
		<kml:LookAt>
			<kml:longitude>-71.31561222293286</kml:longitude>
			<kml:latitude>-40.10824026727941</kml:latitude>
			<kml:altitude>987.7857323094249</kml:altitude>
			<kml:heading>0</kml:heading>
			<kml:tilt>0</kml:tilt>
			<gx:fovy>35</gx:fovy>
			<kml:range>398.3454271021766</kml:range>
			<kml:altitudeMode>absolute</kml:altitudeMode>
		</kml:LookAt>
		<kml:styleUrl>#__managed_style_02F647BF173EF20E6B81</kml:styleUrl>
		<kml:Point>
			<kml:coordinates>-71.31739738194605,-40.10845777157749,1002.520329294592</kml:coordinates>
		</kml:Point>
	</kml:Placemark>
<kml:Placemark id="0E005E43583901A7297F">
		<kml:name>LOTE VEGA MAIPU</kml:name>
		<kml:description>&lt;div&gt;&lt;div&gt;Vega Maipu&lt;br&gt;&lt;/div&gt;&lt;div&gt;Lote individual o en conjunto&lt;br&gt;&lt;/div&gt;&lt;div&gt;uf 9/ uf 8&lt;br&gt;&lt;/div&gt;&lt;div&gt;589,26 m2 c/u&amp;nbsp;&lt;br&gt;&lt;/div&gt;&lt;div&gt;x2 1.178 m2&lt;br&gt;&lt;/div&gt;&lt;div&gt;&lt;br&gt;&lt;/div&gt;&lt;div&gt;Todos lo s servicios por red&lt;br&gt;&lt;/div&gt;&lt;div&gt;Luz, agua y gas&lt;br&gt;&lt;/div&gt;&lt;div&gt;&lt;br&gt;&lt;/div&gt;&lt;div&gt;230 mil usd conjunto&amp;nbsp;&lt;br&gt;&lt;/div&gt;&lt;div&gt;130 mil usd individual&lt;br&gt;&lt;/div&gt;&lt;div&gt;&lt;br&gt;&lt;/div&gt;&lt;li&gt;&lt;p&gt;&lt;b&gt;Consultar al municipio&lt;/b&gt; si permiten construir en 1.178 m² bajo un proyecto especial.&lt;br&gt;&lt;/p&gt;&lt;/li&gt;&lt;li&gt;&lt;p&gt;&lt;b&gt;Englobar más lotes para llegar a 3.000 m²&lt;/b&gt; y evitar trámites especiales.&lt;br&gt;&lt;/p&gt;&lt;/li&gt;&lt;li&gt;&lt;p&gt;&lt;b&gt;Evaluar un uso liviano&lt;/b&gt; (como depósito o galpón abierto) que no requiera edificación formal.&lt;br&gt;&lt;/p&gt;&lt;/li&gt;&lt;div&gt;VER ORDENANZA// CONSULTAR MUNICIPIO&lt;br&gt;&lt;/div&gt;&lt;div&gt;&lt;br&gt;&lt;/div&gt;&lt;/div&gt;&lt;div&gt;&lt;br&gt;&lt;/div&gt;</kml:description>
		<kml:LookAt>
			<kml:longitude>-71.25082880912707</kml:longitude>
			<kml:latitude>-40.12602610069749</kml:latitude>
			<kml:altitude>748.9492309091748</kml:altitude>
			<kml:heading>0</kml:heading>
			<kml:tilt>0</kml:tilt>
			<gx:fovy>35</gx:fovy>
			<kml:range>758.3177889283252</kml:range>
			<kml:altitudeMode>absolute</kml:altitudeMode>
		</kml:LookAt>
		<kml:styleUrl>#__managed_style_02F647BF173EF20E6B81</kml:styleUrl>
		<kml:Point>
			<kml:coordinates>-71.25133579080001,-40.12587734902962,748.9024523090189</kml:coordinates>
		</kml:Point>
	</kml:Placemark>
<kml:Placemark id="08EC67BAD7396ED8582C">
		<kml:name>LOTE j. CALDERON</kml:name>
		<kml:description>&lt;div&gt;Terreno en venta con potencial de desarrollo&lt;br&gt;&lt;/div&gt;&lt;div&gt;📍 José Calderón esquina, frente al Arroyo Pocahullo – San Martín de los Andes&lt;br&gt;&lt;/div&gt;&lt;div&gt;&lt;br&gt;&lt;/div&gt;&lt;div&gt;Superficie: 229,52 m²&lt;br&gt;&lt;/div&gt;&lt;div&gt;&lt;br&gt;&lt;/div&gt;&lt;div&gt;Frente: 17,58 m&lt;br&gt;&lt;/div&gt;&lt;div&gt;&lt;br&gt;&lt;/div&gt;&lt;div&gt;Zonificación: Área Residencial Intermedia (ARI)&lt;br&gt;&lt;/div&gt;&lt;div&gt;&lt;br&gt;&lt;/div&gt;&lt;div&gt;FOT: 1.20 | FOS: 50 %&lt;br&gt;&lt;/div&gt;&lt;div&gt;&lt;br&gt;&lt;/div&gt;&lt;div&gt;Altura máxima: PB + 2 pisos (9,5 m)&lt;br&gt;&lt;/div&gt;&lt;div&gt;&lt;br&gt;&lt;/div&gt;&lt;div&gt;Usos permitidos: vivienda unifamiliar o colectiva, alojamiento turístico, local profesional o comercial&lt;br&gt;&lt;/div&gt;&lt;div&gt;&lt;br&gt;&lt;/div&gt;&lt;div&gt;Cuenta con una construcción existente a demoler&lt;br&gt;&lt;/div&gt;&lt;div&gt;&lt;br&gt;&lt;/div&gt;&lt;div&gt;Ubicación estratégica, entorno natural, ideal para desarrollo.&lt;br&gt;&lt;/div&gt;&lt;div&gt;Requiere excepción por superficie mínima (360 m²), con viabilidad de aprobación.&lt;br&gt;&lt;/div&gt;&lt;div&gt;&lt;br&gt;&lt;/div&gt;</kml:description>
		<kml:LookAt>
			<kml:longitude>-71.34908096965835</kml:longitude>
			<kml:latitude>-40.15188819337922</kml:latitude>
			<kml:altitude>651.968030140875</kml:altitude>
			<kml:heading>72.59471264989418</kml:heading>
			<kml:tilt>0</kml:tilt>
			<gx:fovy>35</gx:fovy>
			<kml:range>500.0541102958961</kml:range>
			<kml:altitudeMode>absolute</kml:altitudeMode>
		</kml:LookAt>
		<kml:styleUrl>#__managed_style_02F647BF173EF20E6B81</kml:styleUrl>
		<kml:Point>
			<kml:coordinates>-71.3486372763839,-40.15157949635648,652.1787908676293</kml:coordinates>
		</kml:Point>
	</kml:Placemark>
<kml:Placemark id="080F9D724439870E2EBB">
		<kml:name>TERRENO MIRALEJOS</kml:name>
		<kml:description>&lt;div&gt;&lt;span style="color: rgba(0, 0, 0, 0.55); font-style: normal; font-variant-ligatures: normal; font-variant-caps: normal; font-weight: 400; letter-spacing: normal; orphans: 2; text-align: start; text-indent: 0px; text-transform: none; widows: 2; word-spacing: 0px; white-space: normal; background-color: rgb(255, 255, 255); text-decoration-thickness: initial; text-decoration-style: initial; text-decoration-color: initial; float: none; display: inline;"&gt;&lt;span class="font" style="font-family: &amp;quot;Proxima Nova&amp;quot;, -apple-system, Roboto, Arial, sans-serif;"&gt;&lt;span class="size" style="font-size: 20px;"&gt;&lt;b&gt;Para el verdadero amante de la montaña –&lt;/b&gt;&lt;/span&gt;&lt;/span&gt;&lt;/span&gt;&lt;b&gt;&lt;/b&gt;&lt;br&gt;&lt;/div&gt;&lt;div&gt;&lt;span style="color: rgba(0, 0, 0, 0.55); font-style: normal; font-variant-ligatures: normal; font-variant-caps: normal; font-weight: 400; letter-spacing: normal; orphans: 2; text-align: start; text-indent: 0px; text-transform: none; widows: 2; word-spacing: 0px; white-space: normal; background-color: rgb(255, 255, 255); text-decoration-thickness: initial; text-decoration-style: initial; text-decoration-color: initial; float: none; display: inline;"&gt;&lt;span class="font" style="font-family: &amp;quot;Proxima Nova&amp;quot;, -apple-system, Roboto, Arial, sans-serif;"&gt;&lt;span class="size" style="font-size: 20px;"&gt;&lt;b&gt;Lote de 6.849 m² en Estancia Miralejos&lt;/b&gt;&lt;/span&gt;&lt;/span&gt;&lt;/span&gt;&lt;b&gt;&lt;/b&gt;&lt;br&gt;&lt;/div&gt;&lt;div&gt;&lt;span style="color: rgba(0, 0, 0, 0.55); font-style: normal; font-variant-ligatures: normal; font-variant-caps: normal; font-weight: 400; letter-spacing: normal; orphans: 2; text-align: start; text-indent: 0px; text-transform: none; widows: 2; word-spacing: 0px; white-space: normal; background-color: rgb(255, 255, 255); text-decoration-thickness: initial; text-decoration-style: initial; text-decoration-color: initial; float: none; display: inline;"&gt;&lt;span class="font" style="font-family: &amp;quot;Proxima Nova&amp;quot;, -apple-system, Roboto, Arial, sans-serif;"&gt;&lt;span class="size" style="font-size: 20px;"&gt;&lt;b&gt;San Martín de los Andes – A 1.400 msnm con vistas a la precordillera&lt;/b&gt;&lt;/span&gt;&lt;/span&gt;&lt;/span&gt;&lt;b&gt;&lt;/b&gt;&lt;br&gt;&lt;/div&gt;&lt;div&gt;&lt;b&gt;&lt;/b&gt;&lt;br&gt;&lt;/div&gt;&lt;div&gt;&lt;span style="color: rgba(0, 0, 0, 0.55); font-style: normal; font-variant-ligatures: normal; font-variant-caps: normal; font-weight: 400; letter-spacing: normal; orphans: 2; text-align: start; text-indent: 0px; text-transform: none; widows: 2; word-spacing: 0px; white-space: normal; background-color: rgb(255, 255, 255); text-decoration-thickness: initial; text-decoration-style: initial; text-decoration-color: initial; float: none; display: inline;"&gt;&lt;span class="font" style="font-family: &amp;quot;Proxima Nova&amp;quot;, -apple-system, Roboto, Arial, sans-serif;"&gt;&lt;span class="size" style="font-size: 20px;"&gt;&lt;b&gt;Si sentís que tu lugar está entre las alturas, rodeado de naturaleza salvaje y silencios que te conectan con lo esencial, este lote es para vos.&lt;/b&gt;&lt;/span&gt;&lt;/span&gt;&lt;/span&gt;&lt;b&gt;&lt;/b&gt;&lt;br&gt;&lt;/div&gt;&lt;div&gt;&lt;b&gt;&lt;/b&gt;&lt;br&gt;&lt;/div&gt;&lt;div&gt;&lt;span style="color: rgba(0, 0, 0, 0.55); font-style: normal; font-variant-ligatures: normal; font-variant-caps: normal; font-weight: 400; letter-spacing: normal; orphans: 2; text-align: start; text-indent: 0px; text-transform: none; widows: 2; word-spacing: 0px; white-space: normal; background-color: rgb(255, 255, 255); text-decoration-thickness: initial; text-decoration-style: initial; text-decoration-color: initial; float: none; display: inline;"&gt;&lt;span class="font" style="font-family: &amp;quot;Proxima Nova&amp;quot;, -apple-system, Roboto, Arial, sans-serif;"&gt;&lt;span class="size" style="font-size: 20px;"&gt;&lt;b&gt;Ubicado en la zona más alta de Estancia Miralejos, este terreno de 6.849 m² ofrece una inmersión total en el paisaje patagónico. Rodeado de bosques nativos y con vistas imponentes a la precordillera, es el punto de partida para construir una vida auténtica, lejos del ruido y cerca de todo lo que importa.&lt;/b&gt;&lt;/span&gt;&lt;/span&gt;&lt;/span&gt;&lt;b&gt;&lt;/b&gt;&lt;br&gt;&lt;/div&gt;&lt;div&gt;&lt;b&gt;&lt;/b&gt;&lt;br&gt;&lt;/div&gt;&lt;div&gt;&lt;span style="color: rgba(0, 0, 0, 0.55); font-style: normal; font-variant-ligatures: normal; font-variant-caps: normal; font-weight: 400; letter-spacing: normal; orphans: 2; text-align: start; text-indent: 0px; text-transform: none; widows: 2; word-spacing: 0px; white-space: normal; background-color: rgb(255, 255, 255); text-decoration-thickness: initial; text-decoration-style: initial; text-decoration-color: initial; float: none; display: inline;"&gt;&lt;span class="font" style="font-family: &amp;quot;Proxima Nova&amp;quot;, -apple-system, Roboto, Arial, sans-serif;"&gt;&lt;span class="size" style="font-size: 20px;"&gt;&lt;b&gt;Todos los servicios subterráneos: luz, agua, gas y fibra óptica.&lt;/b&gt;&lt;/span&gt;&lt;/span&gt;&lt;/span&gt;&lt;b&gt;&lt;/b&gt;&lt;br&gt;&lt;/div&gt;&lt;div&gt;&lt;span style="color: rgba(0, 0, 0, 0.55); font-style: normal; font-variant-ligatures: normal; font-variant-caps: normal; font-weight: 400; letter-spacing: normal; orphans: 2; text-align: start; text-indent: 0px; text-transform: none; widows: 2; word-spacing: 0px; white-space: normal; background-color: rgb(255, 255, 255); text-decoration-thickness: initial; text-decoration-style: initial; text-decoration-color: initial; float: none; display: inline;"&gt;&lt;span class="font" style="font-family: &amp;quot;Proxima Nova&amp;quot;, -apple-system, Roboto, Arial, sans-serif;"&gt;&lt;span class="size" style="font-size: 20px;"&gt;&lt;b&gt;Incluye proyecto aprobado por el reconocido estudio de arquitectura Velazco Suárez, para una vivienda unifamiliar de 203,66 m², diseñada para integrarse armónicamente con el entorno.&lt;/b&gt;&lt;/span&gt;&lt;/span&gt;&lt;/span&gt;&lt;b&gt;&lt;/b&gt;&lt;br&gt;&lt;/div&gt;&lt;div&gt;&lt;b&gt;&lt;/b&gt;&lt;br&gt;&lt;/div&gt;&lt;div&gt;&lt;span style="color: rgba(0, 0, 0, 0.55); font-style: normal; font-variant-ligatures: normal; font-variant-caps: normal; font-weight: 400; letter-spacing: normal; orphans: 2; text-align: start; text-indent: 0px; text-transform: none; widows: 2; word-spacing: 0px; white-space: normal; background-color: rgb(255, 255, 255); text-decoration-thickness: initial; text-decoration-style: initial; text-decoration-color: initial; float: none; display: inline;"&gt;&lt;span class="font" style="font-family: &amp;quot;Proxima Nova&amp;quot;, -apple-system, Roboto, Arial, sans-serif;"&gt;&lt;span class="size" style="font-size: 20px;"&gt;&lt;b&gt;Miralejos es un exclusivo club de campo de 430 hectáreas, con acceso interno al centro de esquí Chapelco, a solo 30 minutos del centro de San Martín de los Andes. Un entorno que invita a vivir cada estación de manera intensa y real.&lt;/b&gt;&lt;/span&gt;&lt;/span&gt;&lt;/span&gt;&lt;b&gt;&lt;/b&gt;&lt;br&gt;&lt;/div&gt;&lt;div&gt;&lt;b&gt;&lt;/b&gt;&lt;br&gt;&lt;/div&gt;&lt;div&gt;&lt;span style="color: rgba(0, 0, 0, 0.55); font-style: normal; font-variant-ligatures: normal; font-variant-caps: normal; font-weight: 400; letter-spacing: normal; orphans: 2; text-align: start; text-indent: 0px; text-transform: none; widows: 2; word-spacing: 0px; white-space: normal; background-color: rgb(255, 255, 255); text-decoration-thickness: initial; text-decoration-style: initial; text-decoration-color: initial; float: none; display: inline;"&gt;&lt;span class="font" style="font-family: &amp;quot;Proxima Nova&amp;quot;, -apple-system, Roboto, Arial, sans-serif;"&gt;&lt;span class="size" style="font-size: 20px;"&gt;&lt;b&gt;Ideal para espíritus libres, exploradores modernos, familias conscientes o quienes buscan habitar la montaña con respeto y visión.&lt;/b&gt;&lt;/span&gt;&lt;/span&gt;&lt;/span&gt;&lt;b&gt;&lt;/b&gt;&lt;br&gt;&lt;/div&gt;&lt;div&gt;&lt;br&gt;&lt;/div&gt;&lt;div&gt;&lt;br&gt;&lt;/div&gt;&lt;div&gt;&lt;br&gt;&lt;/div&gt;&lt;div&gt;&lt;br&gt;&lt;/div&gt;</kml:description>
		<kml:LookAt>
			<kml:longitude>-71.27766425426158</kml:longitude>
			<kml:latitude>-40.17011320889445</kml:latitude>
			<kml:altitude>1355.23888762836</kml:altitude>
			<kml:heading>0</kml:heading>
			<kml:tilt>0</kml:tilt>
			<gx:fovy>35</gx:fovy>
			<kml:range>4110.732296408387</kml:range>
			<kml:altitudeMode>absolute</kml:altitudeMode>
		</kml:LookAt>
		<kml:styleUrl>#__managed_style_02F647BF173EF20E6B81</kml:styleUrl>
		<kml:Point>
			<kml:coordinates>-71.26981144609729,-40.17403342058235,1443.772087152573</kml:coordinates>
		</kml:Point>
	</kml:Placemark>
<kml:Placemark id="039AC08FFF3B2D9D17D7">
		<kml:name>uf 42 E. MIRALEJOS</kml:name>
		<kml:description>&lt;div&gt;&lt;span style="color: rgba(0, 0, 0, 0.55); font-style: normal; font-variant-ligatures: normal; font-variant-caps: normal; font-weight: 400; letter-spacing: normal; orphans: 2; text-align: start; text-indent: 0px; text-transform: none; widows: 2; word-spacing: 0px; white-space: pre-line; background-color: rgb(255, 255, 255); text-decoration-thickness: initial; text-decoration-style: initial; text-decoration-color: initial; float: none; display: inline;"&gt;&lt;span class="font" style="font-family: &amp;quot;Proxima Nova&amp;quot;, -apple-system, Roboto, Arial, sans-serif;"&gt;&lt;span class="size" style="font-size: 20px;"&gt;Terreno en Estancia Miralejos Club de Campo – Un Refugio Exclusivo

¿Buscas un lugar donde la naturaleza y la exclusividad se encuentren? Este terreno en Estancia Miralejos Club de Campo es tu oportunidad para construir el hogar de tus sueños en un entorno de ensueño. Ubicado en una zona privilegiada, ofrece vistas impresionantes al lago Lacar 360° y al majestuoso volcán Lanín, un espectáculo natural que te dejará sin aliento.

Imagina vivir cada estación del año en armonía con la naturaleza:
- Invierno: Paisajes nevados y pistas de esquí a un paso de tu puerta.
- Primavera: Explosión de colores y vida en el parque nacional.
- Verano: Días de sol y aventuras en el lago y la montaña.
- Otoño: Un mar de colores que te rodea en cada rincón.

Este terreno cuenta con todos los servicios subterráneos necesarios para una vida cómoda y moderna:
- Agua: Acceso a agua potable de alta calidad.
- Luz: Servicio eléctrico confiable y seguro.
- Gas: Acceso a gas natural para calefacción y cocina.
- Fibra Óptica: Conexión a internet de alta velocidad para estar siempre conectado.

El terreno es el lienzo perfecto para que crees tu refugio de montaña, con acceso a todos los servicios y comodidades del club de campo. Disfruta de la tranquilidad y la privacidad que solo un entorno exclusivo como este puede ofrecer.

Ubicación: Estancia Miralejos Club de Campo.

Consultanos para conocer más detalles o coordinar una visita.

INVERTI EN NATURALEZA.

Denise Catalán Bienes Raíces.
Inmobiliaria boutique – San Martín de los Andes- Patagonia, Argentina.&lt;/span&gt;&lt;/span&gt;&lt;/span&gt;&lt;br&gt;&lt;/div&gt;</kml:description>
		<kml:LookAt>
			<kml:longitude>-71.28413379151372</kml:longitude>
			<kml:latitude>-40.15823284662673</kml:latitude>
			<kml:altitude>1181.840276949651</kml:altitude>
			<kml:heading>20.0032651269655</kml:heading>
			<kml:tilt>7.496981101742413</kml:tilt>
			<gx:fovy>35</gx:fovy>
			<kml:range>707.981188545964</kml:range>
			<kml:altitudeMode>absolute</kml:altitudeMode>
		</kml:LookAt>
		<kml:styleUrl>#__managed_style_36206C07643EF20E6B84</kml:styleUrl>
		<kml:Point>
			<kml:coordinates>-71.28416436287861,-40.15871384022447,1192.070482669499</kml:coordinates>
		</kml:Point>
	</kml:Placemark>
</kml:Document>
</kml:kml>